OBJECT_NAME,OBJECT_ID,EPOCH,MEAN_MOTION,ECCENTRICITY,INCLINATION,RA_OF_ASC_NODE,ARG_OF_PERICENTER,MEAN_ANOMALY,EPHEMERIS_TYPE,CLASSIFICATION_TYPE,NORAD_CAT_ID,ELEMENT_SET_NO,REV_AT_EPOCH,BSTAR,MEAN_MOTION_DOT,MEAN_MOTION_DDOT
LEMUR-2-ROUNDTRIPPER,2025-009DG,2026-06-19T11:44:25.435392,15.03824218,.00055659,97.7253,253.1657,124.2524,235.9229,0,U,62711,999,7797,.53854671E-3,.735E-4,0
LEMUR-2-MYNAMEISJEFF,2025-009DH,2026-06-19T16:29:34.029024,15.03830398,.0003831,97.7298,253.7459,144.8140,215.3339,0,U,62712,999,7800,.48605E-3,.6627E-4,0
LEMUR-2-LEIA-PHILIP,2025-052AN,2026-06-19T16:13:23.298240,14.97323073,.0002825,97.6834,62.5854,201.8869,158.2233,0,U,63246,999,6904,.46555E-4,.483E-5,0
LEMUR-2-LIA-MARTIN,2025-052AQ,2026-06-19T16:19:30.347040,14.97817180,.0003017,97.6886,63.0682,154.4867,205.6505,0,U,63248,999,6905,.24948E-3,.2874E-4,0
LEMUR-2-DELOITTE-1,2025-052BB,2026-06-19T15:45:58.961088,14.97621203,.0003546,97.6922,63.3737,92.0664,268.0964,0,U,63259,999,6906,.30614E-3,.3522E-4,0
LEMUR-2-EMERSONROSE,2025-052BD,2026-06-19T16:42:51.335136,14.99092847,.0001734,97.6877,63.9759,70.4083,289.7327,0,U,63261,999,6911,.23988E-3,.2855E-4,0
LEMUR-2-MARACHE-FRAN,2025-052BE,2026-06-19T16:04:51.284064,15.00121451,.0005105,97.6934,64.2723,14.0732,346.0632,0,U,63262,999,6913,.32763E-3,.4029E-4,0
LEMUR-2-THEFALCONER,2025-052BG,2026-06-19T16:24:28.675872,14.97400156,.0002341,97.6852,63.0182,25.2205,334.9130,0,U,63264,999,6906,.21767E-3,.2473E-4,0
LEMUR-2-UNTITLED-SC,2025-061A,2026-06-19T20:46:20.280000,15.13492685,.0016993,97.5638,146.2078,254.3090,105.6267,0,U,63351,999,6799,.17907E-3,.3148E-4,0
LEMUR-2-ESPERANZA,2025-061B,2026-06-19T09:06:47.045952,15.13581763,.00165467,97.5645,145.8194,255.4833,104.4562,0,U,63352,999,6792,.144404E-3,.2531E-4,0
LEMUR-2-KREMPEL-BRO2,2025-061C,2026-06-19T11:19:53.650272,15.14019360,.00175821,97.5692,146.4474,246.8225,113.1154,0,U,63353,999,6795,.17459775E-3,.3115E-4,0
LEMUR-2-THERMORAPTOR,2025-061D,2026-06-19T09:18:43.841088,15.14099260,.00172748,97.5696,146.4399,245.9615,113.9809,0,U,63354,999,6794,.16142345E-3,.2881E-4,0
LEMUR-2-NEUROSPICY,2025-061E,2026-06-19T21:18:58.522176,15.14216694,.0015112,97.5626,146.5613,247.7188,112.2441,0,U,63355,999,6802,.17757E-3,.3184E-4,0
LEMUR-2-TILLINFINITY,2025-061F,2026-06-19T20:33:07.773408,15.14802135,.0016508,97.5608,146.8219,234.9906,124.9777,0,U,63356,999,6804,.1537E-3,.2794E-4,0
LEMUR-2-KREMPEL-BRO1,2025-061G,2026-06-19T11:59:44.934432,15.14604861,.00171072,97.5612,146.3830,237.7923,122.1651,0,U,63357,999,6798,.15468657E-3,.2798E-4,0
LEMUR-2-LANGER2SPACE,2025-061H,2026-06-19T11:03:25.612704,15.14302187,.00149965,97.5616,146.1570,247.5926,112.3717,0,U,63358,999,6796,.15920354E-3,.2854E-4,0
LEMUR-2-BALTO,2025-052BH,2026-06-19T15:42:50.450112,15.00110106,.0006887,97.6898,64.2339,51.6334,308.5507,0,U,63395,999,6913,.3984E-3,.4912E-4,0
LEMUR-2-KRISH,2025-135AK,2026-06-19T17:59:09.499200,14.96229980,.0001661,97.7755,285.6081,97.4201,262.7209,0,U,64561,999,5430,.34302E-3,.3812E-4,0
LEMUR-2-HUBBLE-4,2025-135AP,2026-06-19T13:10:16.135968,14.93203864,.0000897,97.7702,284.4259,288.3995,71.7127,0,U,64565,999,5422,.11026535E-3,.1095E-4,0
LEMUR-2-SEJONG-2,2025-135BL,2026-06-19T20:17:23.883648,14.96711958,.0003566,97.7686,285.8479,327.4588,32.6413,0,U,64586,999,5434,.29332E-3,.3292E-4,0
LEMUR-2-HUBBLE-5,2025-135BT,2026-06-19T13:38:25.661184,14.94140444,.0004883,97.7721,285.0832,345.1307,14.9769,0,U,64840,999,5426,.79277573E-4,.791E-5,0
LEMUR-2-KARENDARRELL,2025-135BU,2026-06-19T18:52:15.215808,15.00141029,.0009886,97.7681,286.9897,192.0079,168.0910,0,U,64841,999,5440,.51931E-3,.643E-4,0
LEMUR-2-LUCILLE-ROSE,2025-135BV,2026-06-19T13:26:08.350368,15.00176766,.00114018,97.7764,286.7860,273.6348,86.3572,0,U,65403,999,4899,.40596519E-3,.5018E-4,0
LEMUR-2-AFFIE-WAUWIE,2025-248C,2026-06-19T03:34:26.683680,15.27203290,.00073268,45.3921,104.3599,97.1817,262.9905,0,U,66295,999,3489,.57489484E-3,.15354E-3,0
LEMUR-2-DEANANDMAEVE,2025-276N,2026-06-19T16:26:24.575424,15.19758314,.0005461,97.4207,244.1192,6.3008,353.8294,0,U,66678,999,3079,.26013E-3,.5498E-4,0
LEMUR-2-STAS-GORBUK,2025-276W,2026-06-19T16:48:07.942752,15.19402422,.0004855,97.4242,244.1889,7.1231,353.0072,0,U,66686,999,3079,.21374E-3,.4458E-4,0
LEMUR-2-TEODOR,2025-276DG,2026-06-19T21:05:00.424032,15.21074312,.000223,97.4147,244.6041,114.3450,245.8019,0,U,66768,999,3085,.22168E-3,.4857E-4,0
LEMUR-2-LAILA,2025-276DQ,2026-06-19T17:17:26.849760,15.21294575,.0002365,97.4170,244.5708,132.5690,227.5746,0,U,66776,999,3083,.2022E-3,.4453E-4,0
LEMUR-2-CELIJO-SB-PK,2025-276DW,2026-06-19T16:55:05.559744,15.00003232,.0008593,97.5242,241.4003,126.6428,233.5587,0,U,66781,999,2300,.42853E-3,.5277E-4,0
LEMUR-2-FINNIAN,2025-276DX,2026-06-19T17:57:00.738144,15.00405471,.0008909,97.5291,241.6582,81.8955,278.3279,0,U,66782,999,2038,.44925E-3,.5594E-4,0
